[{"OBJECT_NAME":"STARLINK-33924","OBJECT_ID":"2025-112D","EPOCH":"2026-03-09T16:27:06.898464","MEAN_MOTION":15.0565016,"ECCENTRICITY":4.835e-5,"INCLINATION":97.6041,"RA_OF_ASC_NODE":121.4493,"ARG_OF_PERICENTER":90.2285,"MEAN_ANOMALY":269.8997,"EPHEMERIS_TYPE":0,"CLASSIFICATION_TYPE":"U","NORAD_CAT_ID":64149,"ELEMENT_SET_NO":999,"REV_AT_EPOCH":4330,"BSTAR":0.00025469218,"MEAN_MOTION_DOT":3.616e-5,"MEAN_MOTION_DDOT":0},{"OBJECT_NAME":"CZ-6A DEB","OBJECT_ID":"2024-140QV","EPOCH":"2026-03-09T14:50:36.844800","MEAN_MOTION":14.79717429,"ECCENTRICITY":0.0126492,"INCLINATION":89.1682,"RA_OF_ASC_NODE":293.0345,"ARG_OF_PERICENTER":169.4874,"MEAN_ANOMALY":190.9042,"EPHEMERIS_TYPE":0,"CLASSIFICATION_TYPE":"U","NORAD_CAT_ID":61151,"ELEMENT_SET_NO":999,"REV_AT_EPOCH":8312,"BSTAR":0.0011388,"MEAN_MOTION_DOT":9.83e-5,"MEAN_MOTION_DDOT":0}]
